{
  "type": "FeatureCollection",
  "features": [
    {
      "type": "Feature",
      "properties": {
        "norad_id": 30326,
        "name": "FENGYUN 1C DEB",
        "group": "fengyun-1c-debris",
        "lat": 59.21189786576919,
        "lon": -140.36898939144285,
        "alt_km": 848.9294014677489,
        "timestamp": "2025-12-13T03:42:11.548426+00:00",
        "meta_object_name": "FENGYUN 1C DEB",
        "meta_object_id": "1999-025AAM",
        "meta_epoch": "2025-12-12T06:37:21.550368",
        "meta_mean_motion": 13.85474767,
        "meta_eccentricity": 0.0142401,
        "meta_inclination": 98.6541,
        "meta_ra_of_asc_node": 233.6288,
        "meta_arg_of_pericenter": 31.8275,
        "meta_mean_anomaly": 329.1391,
        "meta_ephemeris_type": 0,
        "meta_classification_type": "U",
        "meta_norad_cat_id": 30326,
        "meta_element_set_no": 999,
        "meta_rev_at_epoch": 95449,
        "meta_bstar": 0.00027924769,
        "meta_mean_motion_dot": 3.05e-06,
        "meta_mean_motion_ddot": 0,
        "tle_line1": "1 30326U 99025AAM 25346.27594387  .00000305  00000+0  27925-3 0  9999",
        "tle_line2": "2 30326  98.6541 233.6288 0142401  31.8275 329.1391 13.85474767954490"
      },
      "geometry": {
        "type": "Point",
        "coordinates": [
          -140.36898939144285,
          59.21189786576919
        ]
      }
    },
    {
      "type": "Feature",
      "properties": {
        "norad_id": 30327,
        "name": "FENGYUN 1C DEB",
        "group": "fengyun-1c-debris",
        "lat": -20.891753652525328,
        "lon": -115.30480318715122,
        "alt_km": 917.7290523057491,
        "timestamp": "2025-12-13T03:42:11.548436+00:00",
        "meta_object_name": "FENGYUN 1C DEB",
        "meta_object_id": "1999-025AAN",
        "meta_epoch": "2025-12-11T06:40:35.439744",
        "meta_mean_motion": 14.17968186,
        "meta_eccentricity": 0.01168868,
        "meta_inclination": 98.445,
        "meta_ra_of_asc_node": 239.6594,
        "meta_arg_of_pericenter": 147.0789,
        "meta_mean_anomaly": 340.6978,
        "meta_ephemeris_type": 0,
        "meta_classification_type": "U",
        "meta_norad_cat_id": 30327,
        "meta_element_set_no": 999,
        "meta_rev_at_epoch": 96422,
        "meta_bstar": 0.0025913683,
        "meta_mean_motion_dot": 5.637e-05,
        "meta_mean_motion_ddot": 0,
        "tle_line1": "1 30327U 99025AAN 25345.27818796  .00005637  00000+0  25914-2 0  9990",
        "tle_line2": "2 30327  98.4450 239.6594 0116886 147.0789 340.6978 14.17968186964222"
      },
      "geometry": {
        "type": "Point",
        "coordinates": [
          -115.30480318715122,
          -20.891753652525328
        ]
      }
    },
    {
      "type": "Feature",
      "properties": {
        "norad_id": 30328,
        "name": "FENGYUN 1C DEB",
        "group": "fengyun-1c-debris",
        "lat": 52.533204595809046,
        "lon": -171.23179600389838,
        "alt_km": 842.1892810725831,
        "timestamp": "2025-12-13T03:42:11.548446+00:00",
        "meta_object_name": "FENGYUN 1C DEB",
        "meta_object_id": "1999-025AAP",
        "meta_epoch": "2025-12-12T06:49:09.196608",
        "meta_mean_motion": 14.1247336,
        "meta_eccentricity": 0.00057598,
        "meta_inclination": 98.6865,
        "meta_ra_of_asc_node": 356.4186,
        "meta_arg_of_pericenter": 153.8077,
        "meta_mean_anomaly": 230.5103,
        "meta_ephemeris_type": 0,
        "meta_classification_type": "U",
        "meta_norad_cat_id": 30328,
        "meta_element_set_no": 999,
        "meta_rev_at_epoch": 97258,
        "meta_bstar": 0.00018797956,
        "meta_mean_motion_dot": 3.05e-06,
        "meta_mean_motion_ddot": 0,
        "tle_line1": "1 30328U 99025AAP 25346.28413422  .00000305  00000+0  18798-3 0  9990",
        "tle_line2": "2 30328  98.6865 356.4186 0005759 153.8077 230.5103 14.12473360972586"
      },
      "geometry": {
        "type": "Point",
        "coordinates": [
          -171.23179600389838,
          52.533204595809046
        ]
      }
    },
    {
      "type": "Feature",
      "properties": {
        "norad_id": 30329,
        "name": "FENGYUN 1C DEB",
        "group": "fengyun-1c-debris",
        "lat": 36.68866602482681,
        "lon": 93.5062920068558,
        "alt_km": 968.6696324781242,
        "timestamp": "2025-12-13T03:42:11.548456+00:00",
        "meta_object_name": "FENGYUN 1C DEB",
        "meta_object_id": "1999-025AAQ",
        "meta_epoch": "2025-12-12T06:51:49.242240",
        "meta_mean_motion": 13.86740474,
        "meta_eccentricity": 0.01423453,
        "meta_inclination": 99.2618,
        "meta_ra_of_asc_node": 265.6636,
        "meta_arg_of_pericenter": 36.7328,
        "meta_mean_anomaly": 91.8443,
        "meta_ephemeris_type": 0,
        "meta_classification_type": "U",
        "meta_norad_cat_id": 30329,
        "meta_element_set_no": 999,
        "meta_rev_at_epoch": 95404,
        "meta_bstar": 0.00065611661,
        "meta_mean_motion_dot": 7.84e-06,
        "meta_mean_motion_ddot": 0,
        "tle_line1": "1 30329U 99025AAQ 25346.28598660  .00000784  00000+0  65612-3 0  9997",
        "tle_line2": "2 30329  99.2618 265.6636 0142345  36.7328  91.8443 13.86740474954041"
      },
      "geometry": {
        "type": "Point",
        "coordinates": [
          93.5062920068558,
          36.68866602482681
        ]
      }
    },
    {
      "type": "Feature",
      "properties": {
        "norad_id": 30330,
        "name": "FENGYUN 1C DEB",
        "group": "fengyun-1c-debris",
        "lat": 11.090877464714557,
        "lon": 161.24359418518307,
        "alt_km": 824.81889661879,
        "timestamp": "2025-12-13T03:42:11.548466+00:00",
        "meta_object_name": "FENGYUN 1C DEB",
        "meta_object_id": "1999-025AAR",
        "meta_epoch": "2025-12-11T21:39:34.786080",
        "meta_mean_motion": 13.820553,
        "meta_eccentricity": 0.0187584,
        "meta_inclination": 98.8864,
        "meta_ra_of_asc_node": 338.3056,
        "meta_arg_of_pericenter": 187.0498,
        "meta_mean_anomaly": 237.2414,
        "meta_ephemeris_type": 0,
        "meta_classification_type": "U",
        "meta_norad_cat_id": 30330,
        "meta_element_set_no": 999,
        "meta_rev_at_epoch": 94646,
        "meta_bstar": 0.0017362,
        "meta_mean_motion_dot": 2.095e-05,
        "meta_mean_motion_ddot": 0,
        "tle_line1": "1 30330U 99025AAR 25345.90248595  .00002095  00000+0  17362-2 0  9991",
        "tle_line2": "2 30330  98.8864 338.3056 0187584 187.0498 237.2414 13.82055300946461"
      },
      "geometry": {
        "type": "Point",
        "coordinates": [
          161.24359418518307,
          11.090877464714557
        ]
      }
    },
    {
      "type": "Feature",
      "properties": {
        "norad_id": 30331,
        "name": "FENGYUN 1C DEB",
        "group": "fengyun-1c-debris",
        "lat": 61.78044867194053,
        "lon": 4.629666800821094,
        "alt_km": 855.8950898265739,
        "timestamp": "2025-12-13T03:42:11.548476+00:00",
        "meta_object_name": "FENGYUN 1C DEB",
        "meta_object_id": "1999-025AAS",
        "meta_epoch": "2025-12-12T01:53:49.663392",
        "meta_mean_motion": 13.97828562,
        "meta_eccentricity": 0.00963998,
        "meta_inclination": 98.9568,
        "meta_ra_of_asc_node": 20.6716,
        "meta_arg_of_pericenter": 9.7953,
        "meta_mean_anomaly": 44.5565,
        "meta_ephemeris_type": 0,
        "meta_classification_type": "U",
        "meta_norad_cat_id": 30331,
        "meta_element_set_no": 999,
        "meta_rev_at_epoch": 96110,
        "meta_bstar": 0.00053011323,
        "meta_mean_motion_dot": 7.37e-06,
        "meta_mean_motion_ddot": 0,
        "tle_line1": "1 30331U 99025AAS 25346.07904703  .00000737  00000+0  53011-3 0  9994",
        "tle_line2": "2 30331  98.9568  20.6716 0096399   9.7953  44.5565 13.97828562961105"
      },
      "geometry": {
        "type": "Point",
        "coordinates": [
          4.629666800821094,
          61.78044867194053
        ]
      }
    },
    {
      "type": "Feature",
      "properties": {
        "norad_id": 30332,
        "name": "FENGYUN 1C DEB",
        "group": "fengyun-1c-debris",
        "lat": 50.281794026012435,
        "lon": -53.215595206512724,
        "alt_km": 886.2502532279914,
        "timestamp": "2025-12-13T03:42:11.548524+00:00",
        "meta_object_name": "FENGYUN 1C DEB",
        "meta_object_id": "1999-025AAT",
        "meta_epoch": "2025-12-11T22:06:02.748096",
        "meta_mean_motion": 13.76708223,
        "meta_eccentricity": 0.0178069,
        "meta_inclination": 99.7151,
        "meta_ra_of_asc_node": 317.4255,
        "meta_arg_of_pericenter": 105.0968,
        "meta_mean_anomaly": 317.9405,
        "meta_ephemeris_type": 0,
        "meta_classification_type": "U",
        "meta_norad_cat_id": 30332,
        "meta_element_set_no": 999,
        "meta_rev_at_epoch": 94704,
        "meta_bstar": 0.00055545,
        "meta_mean_motion_dot": 5.68e-06,
        "meta_mean_motion_ddot": 0,
        "tle_line1": "1 30332U 99025AAT 25345.92086514  .00000568  00000+0  55545-3 0  9995",
        "tle_line2": "2 30332  99.7151 317.4255 0178069 105.0968 317.9405 13.76708223947044"
      },
      "geometry": {
        "type": "Point",
        "coordinates": [
          -53.215595206512724,
          50.281794026012435
        ]
      }
    }
  ]
}